{"fetched_at":"2026-07-05T17:36:11.010Z","source":"https://celestrak.org/NORAD/elements/gp.php?GROUP=planet&FORMAT=JSON","constellation":"superdove","records":[{"OBJECT_NAME":"FLOCK 4H-33","OBJECT_ID":"2025-276BY","EPOCH":"2026-07-05T03:58:33.085344","CLASSIFICATION_TYPE":"U","MEAN_MOTION":15.21103568,"ECCENTRICITY":0.0001771,"INCLINATION":97.4212,"RA_OF_ASC_NODE":259.8004,"ARG_OF_PERICENTER":189.7747,"MEAN_ANOMALY":170.3454,"EPHEMERIS_TYPE":0,"NORAD_CAT_ID":66736,"ELEMENT_SET_NO":999,"REV_AT_EPOCH":3317,"BSTAR":0.00046175688,"MEAN_MOTION_DOT":0.00010208,"MEAN_MOTION_DDOT":0},{"OBJECT_NAME":"FLOCK 4H-34","OBJECT_ID":"2025-276BZ","EPOCH":"2026-07-05T03:36:24.429600","CLASSIFICATION_TYPE":"U","MEAN_MOTION":15.20740934,"ECCENTRICITY":0.00015562,"INCLINATION":97.4227,"RA_OF_ASC_NODE":259.7118,"ARG_OF_PERICENTER":203.0474,"MEAN_ANOMALY":157.0692,"EPHEMERIS_TYPE":0,"NORAD_CAT_ID":66737,"ELEMENT_SET_NO":999,"REV_AT_EPOCH":3241,"BSTAR":0.00055971386,"MEAN_MOTION_DOT":0.0001226,"MEAN_MOTION_DDOT":0},{"OBJECT_NAME":"FLOCK 4H-35","OBJECT_ID":"2025-276CA","EPOCH":"2026-07-05T04:37:20.467200","CLASSIFICATION_TYPE":"U","MEAN_MOTION":15.2086465,"ECCENTRICITY":0.00016803,"INCLINATION":97.4187,"RA_OF_ASC_NODE":259.6949,"ARG_OF_PERICENTER":174.1853,"MEAN_ANOMALY":185.9403,"EPHEMERIS_TYPE":0,"NORAD_CAT_ID":66738,"ELEMENT_SET_NO":999,"REV_AT_EPOCH":3246,"BSTAR":0.00051108376,"MEAN_MOTION_DOT":0.00011228,"MEAN_MOTION_DDOT":0},{"OBJECT_NAME":"FLOCK 4H-36","OBJECT_ID":"2025-276CB","EPOCH":"2026-07-04T15:17:48.099264","CLASSIFICATION_TYPE":"U","MEAN_MOTION":15.20626624,"ECCENTRICITY":0.000134,"INCLINATION":97.4231,"RA_OF_ASC_NODE":259.2001,"ARG_OF_PERICENTER":226.9063,"MEAN_ANOMALY":133.206,"EPHEMERIS_TYPE":0,"NORAD_CAT_ID":66739,"ELEMENT_SET_NO":999,"REV_AT_EPOCH":3308,"BSTAR":0.00053409286,"MEAN_MOTION_DOT":0.00011656,"MEAN_MOTION_DDOT":0}]}
