FLOCK 4H-33             
1 66736U 25276BY  26186.16566071  .00010208  00000+0  46176-3 0  9992
2 66736  97.4212 259.8004 0001771 189.7747 170.3454 15.21103568 33172
FLOCK 4H-34             
1 66737U 25276BZ  26186.15028275  .00012260  00000+0  55971-3 0  9994
2 66737  97.4227 259.7118 0001556 203.0474 157.0692 15.20740934 32417
FLOCK 4H-35             
1 66738U 25276CA  26186.19259800  .00011228  00000+0  51108-3 0  9990
2 66738  97.4187 259.6949 0001680 174.1853 185.9403 15.20864650 32468
FLOCK 4H-36             
1 66739U 25276CB  26185.63736226  .00011656  00000+0  53409-3 0  9992
2 66739  97.4231 259.2001 0001340 226.9063 133.2060 15.20626624 33087
